{
  "type": "FeatureCollection",
  "features": [
    {
      "type": "Feature",
      "properties": {
        "norad_id": 26766,
        "name": "INTELSAT 10 (IS-10)",
        "group": "intelsat",
        "lat": 6.62610087241357,
        "lon": -168.81838820418326,
        "alt_km": 36127.32293093227,
        "timestamp": "2025-12-15T22:44:28.591126+00:00",
        "meta_object_name": "INTELSAT 10 (IS-10)",
        "meta_object_id": "2001-019A",
        "meta_epoch": "2025-12-15T01:39:51.718176",
        "meta_mean_motion": 0.99077834,
        "meta_eccentricity": 0.00077065,
        "meta_inclination": 8.6352,
        "meta_ra_of_asc_node": 61.1341,
        "meta_arg_of_pericenter": 226.8022,
        "meta_mean_anomaly": 309.7673,
        "meta_ephemeris_type": 0,
        "meta_classification_type": "U",
        "meta_norad_cat_id": 26766,
        "meta_element_set_no": 999,
        "meta_rev_at_epoch": 4375,
        "meta_bstar": 0,
        "meta_mean_motion_dot": -2.45e-06,
        "meta_mean_motion_ddot": 0,
        "tle_line1": "1 26766U 01019A   25349.06934859 -.00000245  00000+0  00000+0 0  9995",
        "tle_line2": "2 26766   8.6352  61.1341 0007706 226.8022 309.7673  0.99077834 43752"
      },
      "geometry": {
        "type": "Point",
        "coordinates": [
          -168.81838820418326,
          6.62610087241357
        ]
      }
    },
    {
      "type": "Feature",
      "properties": {
        "norad_id": 26900,
        "name": "INTELSAT 902 (IS-902)",
        "group": "intelsat",
        "lat": -4.7889256638509226,
        "lon": 16.026225863946948,
        "alt_km": 35795.456391249565,
        "timestamp": "2025-12-15T22:44:28.591156+00:00",
        "meta_object_name": "INTELSAT 902 (IS-902)",
        "meta_object_id": "2001-039A",
        "meta_epoch": "2025-12-11T04:42:42.842016",
        "meta_mean_motion": 1.00272526,
        "meta_eccentricity": 0.00044264,
        "meta_inclination": 5.6424,
        "meta_ra_of_asc_node": 74.0881,
        "meta_arg_of_pericenter": 184.9809,
        "meta_mean_anomaly": 201.6699,
        "meta_ephemeris_type": 0,
        "meta_classification_type": "U",
        "meta_norad_cat_id": 26900,
        "meta_element_set_no": 999,
        "meta_rev_at_epoch": 8881,
        "meta_bstar": 0,
        "meta_mean_motion_dot": -2.78e-06,
        "meta_mean_motion_ddot": 0,
        "tle_line1": "1 26900U 01039A   25345.19632919 -.00000278  00000+0  00000+0 0  9995",
        "tle_line2": "2 26900   5.6424  74.0881 0004426 184.9809 201.6699  1.00272526 88816"
      },
      "geometry": {
        "type": "Point",
        "coordinates": [
          16.026225863946948,
          -4.7889256638509226
        ]
      }
    },
    {
      "type": "Feature",
      "properties": {
        "norad_id": 27380,
        "name": "INTELSAT 904 (IS-904)",
        "group": "intelsat",
        "lat": -3.860621934508271,
        "lon": 34.65334900397419,
        "alt_km": 35786.00277258336,
        "timestamp": "2025-12-15T22:44:28.591173+00:00",
        "meta_object_name": "INTELSAT 904 (IS-904)",
        "meta_object_id": "2002-007A",
        "meta_epoch": "2025-12-15T02:57:53.111232",
        "meta_mean_motion": 1.00272359,
        "meta_eccentricity": 0.00015781,
        "meta_inclination": 6.4605,
        "meta_ra_of_asc_node": 71.4054,
        "meta_arg_of_pericenter": 237.6168,
        "meta_mean_anomaly": 147.9815,
        "meta_ephemeris_type": 0,
        "meta_classification_type": "U",
        "meta_norad_cat_id": 27380,
        "meta_element_set_no": 999,
        "meta_rev_at_epoch": 4992,
        "meta_bstar": 0,
        "meta_mean_motion_dot": -2.09e-06,
        "meta_mean_motion_ddot": 0,
        "tle_line1": "1 27380U 02007A   25349.12353138 -.00000209  00000+0  00000+0 0  9998",
        "tle_line2": "2 27380   6.4605  71.4054 0001578 237.6168 147.9815  1.00272359 49926"
      },
      "geometry": {
        "type": "Point",
        "coordinates": [
          34.65334900397419,
          -3.860621934508271
        ]
      }
    },
    {
      "type": "Feature",
      "properties": {
        "norad_id": 27426,
        "name": "DIRECTV 5 (TEMPO 1)",
        "group": "intelsat",
        "lat": -3.760950747929255,
        "lon": -44.21204326589557,
        "alt_km": 35774.92940281877,
        "timestamp": "2025-12-15T22:44:28.591187+00:00",
        "meta_object_name": "DIRECTV 5 (TEMPO 1)",
        "meta_object_id": "2002-023A",
        "meta_epoch": "2025-12-15T07:53:38.605056",
        "meta_mean_motion": 1.00272487,
        "meta_eccentricity": 0.00034019,
        "meta_inclination": 4.4087,
        "meta_ra_of_asc_node": 77.6232,
        "meta_arg_of_pericenter": 201.0478,
        "meta_mean_anomaly": 173.8535,
        "meta_ephemeris_type": 0,
        "meta_classification_type": "U",
        "meta_norad_cat_id": 27426,
        "meta_element_set_no": 999,
        "meta_rev_at_epoch": 8628,
        "meta_bstar": 0,
        "meta_mean_motion_dot": -3.8e-07,
        "meta_mean_motion_ddot": 0,
        "tle_line1": "1 27426U 02023A   25349.32891904 -.00000038  00000+0  00000+0 0  9997",
        "tle_line2": "2 27426   4.4087  77.6232 0003401 201.0478 173.8535  1.00272487 86280"
      },
      "geometry": {
        "type": "Point",
        "coordinates": [
          -44.21204326589557,
          -3.760950747929255
        ]
      }
    },
    {
      "type": "Feature",
      "properties": {
        "norad_id": 27438,
        "name": "INTELSAT 905 (IS-905)",
        "group": "intelsat",
        "lat": -3.7837248960441854,
        "lon": -71.36602219508802,
        "alt_km": 35774.87857065473,
        "timestamp": "2025-12-15T22:44:28.591208+00:00",
        "meta_object_name": "INTELSAT 905 (IS-905)",
        "meta_object_id": "2002-027A",
        "meta_epoch": "2025-12-14T04:33:38.635200",
        "meta_mean_motion": 1.00274201,
        "meta_eccentricity": 0.00026501,
        "meta_inclination": 6.2894,
        "meta_ra_of_asc_node": 72.0398,
        "meta_arg_of_pericenter": 202.1249,
        "meta_mean_anomaly": 100.1717,
        "meta_ephemeris_type": 0,
        "meta_classification_type": "U",
        "meta_norad_cat_id": 27438,
        "meta_element_set_no": 999,
        "meta_rev_at_epoch": 4950,
        "meta_bstar": 0,
        "meta_mean_motion_dot": 1.08e-06,
        "meta_mean_motion_ddot": 0,
        "tle_line1": "1 27438U 02027A   25348.19003050  .00000108  00000+0  00000+0 0  9992",
        "tle_line2": "2 27438   6.2894  72.0398 0002650 202.1249 100.1717  1.00274201 49509"
      },
      "geometry": {
        "type": "Point",
        "coordinates": [
          -71.36602219508802,
          -3.7837248960441854
        ]
      }
    },
    {
      "type": "Feature",
      "properties": {
        "norad_id": 27445,
        "name": "GALAXY 3C (G-3C)",
        "group": "intelsat",
        "lat": -3.0914529770458716,
        "lon": -28.93180753655901,
        "alt_km": 35790.99578305027,
        "timestamp": "2025-12-15T22:44:28.591222+00:00",
        "meta_object_name": "GALAXY 3C (G-3C)",
        "meta_object_id": "2002-030A",
        "meta_epoch": "2025-12-15T07:53:38.723424",
        "meta_mean_motion": 1.00271928,
        "meta_eccentricity": 0.00011015,
        "meta_inclination": 3.2704,
        "meta_ra_of_asc_node": 80.4809,
        "meta_arg_of_pericenter": 82.3867,
        "meta_mean_anomaly": 304.9151,
        "meta_ephemeris_type": 0,
        "meta_classification_type": "U",
        "meta_norad_cat_id": 27445,
        "meta_element_set_no": 999,
        "meta_rev_at_epoch": 4465,
        "meta_bstar": 0,
        "meta_mean_motion_dot": -1.33e-06,
        "meta_mean_motion_ddot": 0,
        "tle_line1": "1 27445U 02030A   25349.32892041 -.00000133  00000+0  00000+0 0  9995",
        "tle_line2": "2 27445   3.2704  80.4809 0001101  82.3867 304.9151  1.00271928 44658"
      },
      "geometry": {
        "type": "Point",
        "coordinates": [
          -28.93180753655901,
          -3.0914529770458716
        ]
      }
    },
    {
      "type": "Feature",
      "properties": {
        "norad_id": 27513,
        "name": "INTELSAT 906 (IS-906)",
        "group": "intelsat",
        "lat": 4.375981866195533,
        "lon": 129.92135046111423,
        "alt_km": 35805.61985360881,
        "timestamp": "2025-12-15T22:44:28.591235+00:00",
        "meta_object_name": "INTELSAT 906 (IS-906)",
        "meta_object_id": "2002-041A",
        "meta_epoch": "2025-12-15T05:07:55.655904",
        "meta_mean_motion": 1.00271942,
        "meta_eccentricity": 0.00062435,
        "meta_inclination": 5.3354,
        "meta_ra_of_asc_node": 75.2018,
        "meta_arg_of_pericenter": 194.7243,
        "meta_mean_anomaly": 315.3027,
        "meta_ephemeris_type": 0,
        "meta_classification_type": "U",
        "meta_norad_cat_id": 27513,
        "meta_element_set_no": 999,
        "meta_rev_at_epoch": 8518,
        "meta_bstar": 0,
        "meta_mean_motion_dot": 3.1e-07,
        "meta_mean_motion_ddot": 0,
        "tle_line1": "1 27513U 02041A   25349.21383861  .00000031  00000+0  00000+0 0  9992",
        "tle_line2": "2 27513   5.3354  75.2018 0006243 194.7243 315.3027  1.00271942 85187"
      },
      "geometry": {
        "type": "Point",
        "coordinates": [
          129.92135046111423,
          4.375981866195533
        ]
      }
    }
  ]
}